NORAD_CAT_ID,OBJECT_NAME,OBJECT_TYPE,EPOCH,MEAN_MOTION,ECCENTRICITY,INCLINATION,RA_OF_ASC_NODE,ARG_OF_PERICENTER,MEAN_ANOMALY,BSTAR,MEAN_MOTION_DOT,MEAN_MOTION_DDOT,TLE_LINE0,TLE_LINE1,TLE_LINE2,SEMIMAJOR_AXIS,PERIOD,APOGEE,PERIGEE,DECAYED
53970.0,STARLINK-4567,PAYLOAD,2024-02-17 19:18:35,15.08481729,0.0003255,53.2184,350.0171,114.163,245.9703,-0.0052886,-0.00082689,0.0,0 STARLINK-4567,1 53970U 22125G   24048.80457533 -.00082689  00000-0 -52886-2 0  9995,2 53970  53.2184 350.0171 0003255 114.1630 245.9703 15.08481729 76106,6918.976,95.46,543.093,538.589,0.0
53970.0,STARLINK-4567,PAYLOAD,2024-02-17 20:52:23,15.09923472,0.00069,53.2192,349.716,272.0564,87.9638,0.0090647,0.00151589,0.0,0 STARLINK-4567,1 53970U 22125G   24048.86972201  .00151589  00000-0  90647-2 0  9996,2 53970  53.2192 349.7160 0006900 272.0564  87.9638 15.09923472 76050,6914.571,95.369,541.207,531.665,0.0
53970.0,STARLINK-4567,PAYLOAD,2024-02-18 06:00:00,15.08810237,0.0001488,53.2167,348.0165,80.1873,181.9603,0.0012485,0.00019622,0.0,0 STARLINK-4567,1 53970U 22125G   24049.25001157  .00019622  00000-0  12485-2 0  9998,2 53970  53.2167 348.0165 0001488  80.1873 181.9603 15.08810237 76168,6917.971,95.439,540.866,538.807,0.0
53970.0,STARLINK-4567,PAYLOAD,2024-02-18 12:47:30,15.08856216,0.0001191,53.2175,346.744,85.288,274.8249,-9.2472e-05,-1.76e-05,0.0,0 STARLINK-4567,1 53970U 22125G   24049.53299622 -.00001760  00000-0 -92472-4 0  9997,2 53970  53.2175 346.7440 0001191  85.2880 274.8249 15.08856216 76157,6917.831,95.437,540.52,538.872,0.0
53970.0,STARLINK-4567,PAYLOAD,2024-02-19 03:05:59,15.08844461,0.0001728,53.2196,344.0687,85.153,274.9659,0.00011454,1.536e-05,0.0,0 STARLINK-4567,1 53970U 22125G   24050.12916238  .00001536  00000-0  11454-3 0  9992,2 53970  53.2196 344.0687 0001728  85.1530 274.9659 15.08844461 76303,6917.867,95.437,540.927,538.536,0.0
53970.0,STARLINK-4567,PAYLOAD,2024-02-19 04:41:22,15.08852987,0.0001509,53.2191,343.7718,88.1604,271.9561,0.00019266,2.781e-05,0.0,0 STARLINK-4567,1 53970U 22125G   24050.19539365  .00002781  00000-0  19266-3 0  9993,2 53970  53.2191 343.7718 0001509  88.1604 271.9561 15.08852987 76313,6917.841,95.437,540.75,538.662,0.0
53970.0,STARLINK-4567,PAYLOAD,2024-02-19 12:38:18,15.08835287,0.0001378,53.2194,342.2854,92.8528,267.2622,5.2296e-05,5.44e-06,0.0,0 STARLINK-4567,1 53970U 22125G   24050.52660776  .00000544  00000-0  52296-4 0  9997,2 53970  53.2194 342.2854 0001378  92.8528 267.2622 15.08835287 76301,6917.895,95.438,540.713,538.807,0.0
53970.0,STARLINK-4567,PAYLOAD,2024-02-19 18:59:51,15.08835493,0.0002018,53.2187,341.098,91.9916,268.1307,3.4415e-05,2.59e-06,0.0,0 STARLINK-4567,1 53970U 22125G   24050.79157195  .00000259  00000-0  34415-4 0  9998,2 53970  53.2187 341.0980 0002018  91.9916 268.1307 15.08835493 76403,6917.894,95.438,541.155,538.363,0.0
53970.0,STARLINK-4567,PAYLOAD,2024-02-20 12:29:06,15.08837119,0.0001688,53.2184,337.8246,89.2425,270.876,1.8321e-05,4e-08,0.0,0 STARLINK-4567,1 53970U 22125G   24051.52021120  .00000004  00000-0  18321-4 0  9994,2 53970  53.2184 337.8246 0001688  89.2425 270.8760 15.08837119 76450,6917.889,95.438,540.922,538.586,0.0
53970.0,STARLINK-4567,PAYLOAD,2024-02-21 06:00:00,15.08806935,0.0001386,53.2166,334.549,84.4409,282.0147,0.0023357,0.00037047,0.0,0 STARLINK-4567,1 53970U 22125G   24052.25001157  .00037047  00000-0  23357-2 0  9993,2 53970  53.2166 334.5490 0001386  84.4409 282.0147 15.08806935 76624,6917.981,95.44,540.805,538.888,0.0
53970.0,STARLINK-4567,PAYLOAD,2024-02-21 14:00:01,15.08807355,0.0001318,53.2169,333.0509,92.2445,285.7851,0.0034551,0.0005508,0.0,0 STARLINK-4567,1 53970U 22125G   24052.58334491  .00055080  00000-0  34551-2 0  9994,2 53970  53.2169 333.0509 0001318  92.2445 285.7851 15.08807355  5771,6917.98,95.44,540.757,538.933,0.0
53970.0,STARLINK-4567,PAYLOAD,2024-02-21 22:00:00,15.08871223,0.0001375,53.217,331.5553,87.7321,301.8628,-0.0027012,-0.00043057,0.0,0 STARLINK-4567,1 53970U 22125G   24052.91667824 -.00043057  00000-0 -27012-2 0  9997,2 53970  53.2170 331.5553 0001375  87.7321 301.8628 15.08871223 76720,6917.785,95.436,540.601,538.699,0.0
53970.0,STARLINK-4567,PAYLOAD,2024-02-22 04:13:44,15.0884054,0.0001613,53.218,330.3885,100.8581,259.2592,8.1039e-05,1.002e-05,0.0,0 STARLINK-4567,1 53970U 22125G   24053.17620827  .00001002  00000-0  81039-4 0  9991,2 53970  53.2180 330.3885 0001613 100.8581 259.2592 15.08840540 76764,6917.879,95.438,540.86,538.628,0.0
53970.0,STARLINK-4567,PAYLOAD,2024-02-22 21:42:59,15.08862144,0.0005128,53.2181,327.1163,92.4001,267.7578,-0.00020335,-3.528e-05,0.0,0 STARLINK-4567,1 53970U 22125G   24053.90485279 -.00003528  00000-0 -20335-3 0  9990,2 53970  53.2181 327.1163 0005128  92.4001 267.7578 15.08862144 76814,6917.813,95.436,543.225,536.13,0.0
53970.0,STARLINK-4567,PAYLOAD,2024-02-23 04:04:29,15.08916736,0.0004765,53.218,325.9262,100.1377,260.0153,-0.00087716,-0.00014255,0.0,0 STARLINK-4567,1 53970U 22125G   24054.16979053 -.00014255  00000-0 -87716-3 0  9992,2 53970  53.2180 325.9262 0004765 100.1377 260.0153 15.08916736 76911,6917.646,95.433,542.807,536.215,0.0
53970.0,STARLINK-4567,PAYLOAD,2024-02-23 18:23:00,15.08831519,0.0001344,53.2189,323.2492,107.1301,252.9839,3.9014e-06,-2.26e-06,0.0,0 STARLINK-4567,1 53970U 22125G   24054.76597687 -.00000226  00000-0  39014-5 0  9999,2 53970  53.2189 323.2492 0001344 107.1301 252.9839 15.08831519 77007,6917.906,95.438,540.701,538.842,0.0
53970.0,STARLINK-4567,PAYLOAD,2024-02-23 21:33:46,15.0883511,0.0001513,53.219,322.6551,107.3055,252.8103,3.2627e-05,2.31e-06,0.0,0 STARLINK-4567,1 53970U 22125G   24054.89845439  .00000231  00000-0  32627-4 0  9991,2 53970  53.2190 322.6551 0001513 107.3055 252.8103 15.08835110 76962,6917.895,95.438,540.807,538.714,0.0
53970.0,STARLINK-4567,PAYLOAD,2024-02-24 03:55:18,15.08841216,0.0001307,53.2175,321.467,92.7041,267.4101,6.4829e-05,7.44e-06,0.0,0 STARLINK-4567,1 53970U 22125G   24055.16341108  .00000744  00000-0  64829-4 0  9994,2 53970  53.2175 321.4670 0001307  92.7041 267.4101 15.08841216 77063,6917.877,95.437,540.646,538.838,0.0
53970.0,STARLINK-4567,PAYLOAD,2024-02-24 10:16:51,15.08843112,0.0001344,53.2177,320.2778,87.751,272.3636,7.8038e-05,9.54e-06,0.0,0 STARLINK-4567,1 53970U 22125G   24055.42837069  .00000954  00000-0  78038-4 0  9999,2 53970  53.2177 320.2778 0001344  87.7510 272.3636 15.08843112 77040,6917.871,95.437,540.666,538.806,0.0
53970.0,STARLINK-4567,PAYLOAD,2024-02-25 10:07:37,15.0886897,0.0001368,53.2181,315.8184,98.3606,261.7542,-0.00027641,-4.688e-05,0.0,0 STARLINK-4567,1 53970U 22125G   24056.42195691 -.00004688  00000-0 -27641-3 0  9991,2 53970  53.2181 315.8184 0001368  98.3606 261.7542 15.08868970 77256,6917.792,95.436,540.603,538.71,0.0
53970.0,STARLINK-4567,PAYLOAD,2024-02-25 16:29:11,15.0883582,0.0001237,53.2184,314.6301,95.3795,264.7338,0.00022187,3.245e-05,0.0,0 STARLINK-4567,1 53970U 22125G   24056.68693376  .00003245  00000-0  22187-3 0  9998,2 53970  53.2184 314.6301 0001237  95.3795 264.7338 15.08835820 77296,6917.893,95.438,540.614,538.902,0.0
53970.0,STARLINK-4567,PAYLOAD,2024-02-25 22:50:43,15.08845517,0.0001453,53.2173,313.4412,96.6065,263.5092,0.00015088,2.114e-05,0.0,0 STARLINK-4567,1 53970U 22125G   24056.95188820  .00002114  00000-0  15088-3 0  9997,2 53970  53.2173 313.4412 0001453  96.6065 263.5092 15.08845517 77274,6917.864,95.437,540.734,538.723,0.0
53970.0,STARLINK-4567,PAYLOAD,2024-02-26 02:01:29,15.08852094,0.0001607,53.218,312.847,89.6982,270.4195,0.000232,3.407e-05,0.0,0 STARLINK-4567,1 53970U 22125G   24057.08436549  .00003407  00000-0  23200-3 0  9997,2 53970  53.2180 312.8470 0001607  89.6982 270.4195 15.08852094 77358,6917.843,95.437,540.82,538.597,0.0
53970.0,STARLINK-4567,PAYLOAD,2024-02-26 22:41:30,15.08837506,0.0001966,53.217,308.9807,127.0151,233.1021,-2.5092e-05,-6.87e-06,0.0,0 STARLINK-4567,1 53970U 22125G   24057.94549219 -.00000687  00000-0 -25092-4 0  9992,2 53970  53.2170 308.9807 0001966 127.0151 233.1021 15.08837506 77423,6917.888,95.438,541.113,538.393,0.0
53970.0,STARLINK-4567,PAYLOAD,2024-02-27 01:52:16,15.08840184,0.0001535,53.2174,308.3871,90.6891,269.4277,5.315e-05,5.58e-06,0.0,0 STARLINK-4567,1 53970U 22125G   24058.07797388  .00000558  00000-0  53150-4 0  9990,2 53970  53.2174 308.3871 0001535  90.6891 269.4277 15.08840184 77500,6917.88,95.438,540.807,538.683,0.0
53970.0,STARLINK-4567,PAYLOAD,2024-02-27 09:49:12,15.08836801,0.000157,53.2174,306.9002,89.4055,270.7117,1.6033e-05,-3.3e-07,0.0,0 STARLINK-4567,1 53970U 22125G   24058.40917674 -.00000033  00000-0  16033-4 0  9997,2 53970  53.2174 306.9002 0001570  89.4055 270.7117 15.08836801 77494,6917.89,95.438,540.841,538.669,0.0
53970.0,STARLINK-4567,PAYLOAD,2024-02-27 22:32:17,15.08840355,0.0001339,53.2156,304.5204,93.712,266.4025,0.00011041,1.47e-05,0.0,0 STARLINK-4567,1 53970U 22125G   24058.93909588  .00001470  00000-0  11041-3 0  9998,2 53970  53.2156 304.5204 0001339  93.7120 266.4025 15.08840355 77574,6917.879,95.438,540.671,538.818,0.0
53970.0,STARLINK-4567,PAYLOAD,2024-02-28 09:39:59,15.08838607,0.0001347,53.2156,302.4348,103.9602,256.154,0.00013276,1.826e-05,0.0,0 STARLINK-4567,1 53970U 22125G   24059.40277722  .00001826  00000-0  13276-3 0  9996,2 53970  53.2156 302.4348 0001347 103.9602 256.1540 15.08838607 77708,6917.885,95.438,540.681,538.818,0.0
53970.0,STARLINK-4567,PAYLOAD,2024-02-28 22:23:05,15.08841031,0.0001354,53.2159,300.0556,106.4384,253.6757,0.00019106,2.754e-05,0.0,0 STARLINK-4567,1 53970U 22125G   24059.93269764  .00002754  00000-0  19106-3 0  9990,2 53970  53.2159 300.0556 0001354 106.4384 253.6757 15.08841031 77728,6917.877,95.437,540.679,538.806,0.0
53970.0,STARLINK-4567,PAYLOAD,2024-02-29 09:30:47,15.08842475,0.0001335,53.2157,297.9737,107.8583,252.2555,0.00014323,1.992e-05,0.0,0 STARLINK-4567,1 53970U 22125G   24060.39637733  .00001992  00000-0  14323-3 0  9996,2 53970  53.2157 297.9737 0001335 107.8583 252.2555 15.08842475 77797,6917.873,95.437,540.661,538.814,0.0
